start=new Date('2022-07-19T00:00:00.000Z').valueOf();
sats=[{"REF_FRAME":"TEME","RCS_SIZE":"LARGE","DECAY_DATE":null,"REV_AT_EPOCH":"3800","BSTAR":"0.00008156400000","CLASSIFICATION_TYPE":"U","GP_ID":"208407920","MEAN_ANOMALY":"302.5980","NORAD_CAT_ID":"49415","EPOCH":"2022-07-18T20:52:30.360576","TIME_SYSTEM":"UTC","MEAN_MOTION_DOT":"0.00001010","MEAN_MOTION_DDOT":"0.0000000000000","CENTER_NAME":"EARTH","SEMIMAJOR_AXIS":"6917.875","LAUNCH_DATE":"2021-11-13","ECCENTRICITY":"0.00023820","EPHEMERIS_TYPE":"0","SITE":"AFETR","PERIOD":"95.437","RA_OF_ASC_NODE":"68.9228","PERIAPSIS":"538.092","TLE_LINE1":"1 49415U 21104H   22199.86979584  .00001010  00000-0  81564-4 0  9990","OBJECT_NAME":"STARLINK-3159","OBJECT_TYPE":"PAYLOAD","TLE_LINE2":"2 49415  53.2161  68.9228 0002382  57.5242 302.5980 15.08841862 38009","APOAPSIS":"541.388","ELEMENT_SET_NO":"999","FILE":"3517175","ARG_OF_PERICENTER":"57.5242","MEAN_ELEMENT_THEORY":"SGP4","OBJECT_ID":"2021-104H","INCLINATION":"53.2161","COUNTRY_CODE":"US","MEAN_MOTION":"15.08841862"},{"OBJECT_TYPE":"PAYLOAD","OBJECT_NAME":"STARLINK-3133","TLE_LINE1":"1 49416U 21104J   22199.87255778  .00002766  00000-0  19180-3 0  9997","TLE_LINE2":"2 49416  53.2162  78.8948 0002911  72.8499 287.2811 15.08846817 37873","INCLINATION":"53.2162","MEAN_ELEMENT_THEORY":"SGP4","OBJECT_ID":"2021-104J","ARG_OF_PERICENTER":"72.8499","FILE":"3517175","ELEMENT_SET_NO":"999","APOAPSIS":"541.738","MEAN_MOTION":"15.08846817","COUNTRY_CODE":"US","REV_AT_EPOCH":"3787","DECAY_DATE":null,"RCS_SIZE":"LARGE","REF_FRAME":"TEME","NORAD_CAT_ID":"49416","MEAN_ANOMALY":"287.2811","GP_ID":"208408170","CLASSIFICATION_TYPE":"U","BSTAR":"0.00019180000000","SEMIMAJOR_AXIS":"6917.860","LAUNCH_DATE":"2021-11-13","ECCENTRICITY":"0.00029110","CENTER_NAME":"EARTH","MEAN_MOTION_DDOT":"0.0000000000000","MEAN_MOTION_DOT":"0.00002766","EPOCH":"2022-07-18T20:56:28.992192","TIME_SYSTEM":"UTC","PERIAPSIS":"537.711","RA_OF_ASC_NODE":"78.8948","PERIOD":"95.437","SITE":"AFETR","EPHEMERIS_TYPE":"0"},{"TIME_SYSTEM":"UTC","EPOCH":"2022-07-18T20:47:12.122592","MEAN_MOTION_DOT":"-0.00000496","MEAN_MOTION_DDOT":"0.0000000000000","CENTER_NAME":"EARTH","LAUNCH_DATE":"2021-11-13","SEMIMAJOR_AXIS":"6917.859","ECCENTRICITY":"0.00025560","EPHEMERIS_TYPE":"0","SITE":"AFETR","PERIOD":"95.437","RA_OF_ASC_NODE":"68.9419","PERIAPSIS":"537.955","RCS_SIZE":"LARGE","REF_FRAME":"TEME","REV_AT_EPOCH":"3800","DECAY_DATE":null,"BSTAR":"-0.00001303000000","CLASSIFICATION_TYPE":"U","GP_ID":"208408422","MEAN_ANOMALY":"297.8132","NORAD_CAT_ID":"49417","APOAPSIS":"541.492","ELEMENT_SET_NO":"999","FILE":"3517175","ARG_OF_PERICENTER":"62.3120","OBJECT_ID":"2021-104K","MEAN_ELEMENT_THEORY":"SGP4","INCLINATION":"53.2183","COUNTRY_CODE":"US","MEAN_MOTION":"15.08847130","TLE_LINE1":"1 49417U 21104K   22199.86611253 -.00000496  00000-0 -13030-4 0  9990","OBJECT_TYPE":"PAYLOAD","OBJECT_NAME":"STARLINK-3154","TLE_LINE2":"2 49417  53.2183  68.9419 0002556  62.3120 297.8132 15.08847130 38008"},{"COUNTRY_CODE":"US","MEAN_MOTION":"15.08842151","APOAPSIS":"541.579","ELEMENT_SET_NO":"999","FILE":"3517175","ARG_OF_PERICENTER":"59.1349","OBJECT_ID":"2021-104L","MEAN_ELEMENT_THEORY":"SGP4","INCLINATION":"53.2179","TLE_LINE2":"2 49418  53.2179  78.9281 0002660  59.1349 300.9905 15.08842151 37860","TLE_LINE1":"1 49418U 21104L   22199.86887787  .00001985  00000-0  14279-3 0  9995","OBJECT_TYPE":"PAYLOAD","OBJECT_NAME":"STARLINK-3111","EPHEMERIS_TYPE":"0","SITE":"AFETR","PERIOD":"95.437","RA_OF_ASC_NODE":"78.9281","PERIAPSIS":"537.899","TIME_SYSTEM":"UTC","EPOCH":"2022-07-18T20:51:11.047968","MEAN_MOTION_DOT":"0.00001985","MEAN_MOTION_DDOT":"0.0000000000000","CENTER_NAME":"EARTH","LAUNCH_DATE":"2021-11-13","ECCENTRICITY":"0.00026600","SEMIMAJOR_AXIS":"6917.874","BSTAR":"0.00014279000000","CLASSIFICATION_TYPE":"U","GP_ID":"208408660","MEAN_ANOMALY":"300.9905","NORAD_CAT_ID":"49418","RCS_SIZE":"LARGE","REF_FRAME":"TEME","REV_AT_EPOCH":"3786","DECAY_DATE":null},{"MEAN_MOTION":"15.08835665","COUNTRY_CODE":"US","INCLINATION":"53.2181","ARG_OF_PERICENTER":"64.6186","FILE":"3517175","OBJECT_ID":"2021-104M","MEAN_ELEMENT_THEORY":"SGP4","ELEMENT_SET_NO":"999","APOAPSIS":"541.216","TLE_LINE2":"2 49419  53.2181  78.9786 0002106  64.6186 295.5024 15.08835665 37862","TLE_LINE1":"1 49419U 21104M   22199.85783719 -.00001522  00000-0 -77568-4 0  9995","OBJECT_NAME":"STARLINK-3120","OBJECT_TYPE":"PAYLOAD","PERIAPSIS":"538.302","PERIOD":"95.438","RA_OF_ASC_NODE":"78.9786","EPHEMERIS_TYPE":"0","SITE":"AFETR","SEMIMAJOR_AXIS":"6917.894","LAUNCH_DATE":"2021-11-13","ECCENTRICITY":"0.00021060","CENTER_NAME":"EARTH","MEAN_MOTION_DDOT":"0.0000000000000","EPOCH":"2022-07-18T20:35:17.133216","TIME_SYSTEM":"UTC","MEAN_MOTION_DOT":"-0.00001522","NORAD_CAT_ID":"49419","MEAN_ANOMALY":"295.5024","CLASSIFICATION_TYPE":"U","GP_ID":"208407421","BSTAR":"-0.00007756800000","DECAY_DATE":null,"REV_AT_EPOCH":"3786","REF_FRAME":"TEME","RCS_SIZE":"LARGE"},{"APOAPSIS":"541.576","ELEMENT_SET_NO":"999","OBJECT_ID":"2021-104N","MEAN_ELEMENT_THEORY":"SGP4","ARG_OF_PERICENTER":"68.9810","FILE":"3517175","INCLINATION":"53.2171","COUNTRY_CODE":"US","MEAN_MOTION":"15.08851982","OBJECT_NAME":"STARLINK-3110","OBJECT_TYPE":"PAYLOAD","TLE_LINE1":"1 49420U 21104N   22199.86519722  .00003231  00000-0  22095-3 0  9990","TLE_LINE2":"2 49420  53.2171  78.9292 0002699  68.9810 291.1471 15.08851982 37861","MEAN_MOTION_DOT":"0.00003231","EPOCH":"2022-07-18T20:45:53.039808","TIME_SYSTEM":"UTC","MEAN_MOTION_DDOT":"0.0000000000000","CENTER_NAME":"EARTH","LAUNCH_DATE":"2021-11-13","SEMIMAJOR_AXIS":"6917.844","ECCENTRICITY":"0.00026990","SITE":"AFETR","EPHEMERIS_TYPE":"0","RA_OF_ASC_NODE":"78.9292","PERIOD":"95.437","PERIAPSIS":"537.842","REF_FRAME":"TEME","RCS_SIZE":"LARGE","REV_AT_EPOCH":"3786","DECAY_DATE":null,"BSTAR":"0.00022095000000","GP_ID":"208407671","CLASSIFICATION_TYPE":"U","MEAN_ANOMALY":"291.1471","NORAD_CAT_ID":"49420"},{"APOAPSIS":"541.331","ELEMENT_SET_NO":"999","FILE":"3517175","ARG_OF_PERICENTER":"61.8780","MEAN_ELEMENT_THEORY":"SGP4","OBJECT_ID":"2021-104P","INCLINATION":"53.2187","COUNTRY_CODE":"US","MEAN_MOTION":"15.08840187","TLE_LINE1":"1 49421U 21104P   22199.85048071 -.00000925  00000-0 -39979-4 0  9993","OBJECT_TYPE":"PAYLOAD","OBJECT_NAME":"STARLINK-3112","TLE_LINE2":"2 49421  53.2187  79.0077 0002293  61.8780 298.2444 15.08840187 37863","EPOCH":"2022-07-18T20:24:41.533344","TIME_SYSTEM":"UTC","MEAN_MOTION_DOT":"-0.00000925","MEAN_MOTION_DDOT":"0.0000000000000","CENTER_NAME":"EARTH","ECCENTRICITY":"0.00022930","LAUNCH_DATE":"2021-11-13","SEMIMAJOR_AXIS":"6917.880","EPHEMERIS_TYPE":"0","SITE":"AFETR","PERIOD":"95.438","RA_OF_ASC_NODE":"79.0077","PERIAPSIS":"538.159","RCS_SIZE":"LARGE","REF_FRAME":"TEME","REV_AT_EPOCH":"3786","DECAY_DATE":null,"BSTAR":"-0.00003997900000","CLASSIFICATION_TYPE":"U","GP_ID":"208408922","MEAN_ANOMALY":"298.2444","NORAD_CAT_ID":"49421"},{"REF_FRAME":"TEME","RCS_SIZE":"LARGE","DECAY_DATE":null,"REV_AT_EPOCH":"3786","MEAN_ANOMALY":"287.4808","NORAD_CAT_ID":"49422","BSTAR":"-0.00003129200000","CLASSIFICATION_TYPE":"U","GP_ID":"208409160","CENTER_NAME":"EARTH","LAUNCH_DATE":"2021-11-13","ECCENTRICITY":"0.00025700","SEMIMAJOR_AXIS":"6917.895","TIME_SYSTEM":"UTC","EPOCH":"2022-07-18T20:40:35.163840","MEAN_MOTION_DOT":"-0.00000786","MEAN_MOTION_DDOT":"0.0000000000000","PERIOD":"95.438","RA_OF_ASC_NODE":"78.9592","PERIAPSIS":"537.982","EPHEMERIS_TYPE":"0","SITE":"AFETR","TLE_LINE1":"1 49422U 21104Q   22199.86151810 -.00000786  00000-0 -31292-4 0  9996","OBJECT_NAME":"STARLINK-3161","OBJECT_TYPE":"PAYLOAD","TLE_LINE2":"2 49422  53.2189  78.9592 0002570  72.6465 287.4808 15.08835189 37864","FILE":"3517175","ARG_OF_PERICENTER":"72.6465","OBJECT_ID":"2021-104Q","MEAN_ELEMENT_THEORY":"SGP4","INCLINATION":"53.2189","APOAPSIS":"541.538","ELEMENT_SET_NO":"999","MEAN_MOTION":"15.08835189","COUNTRY_CODE":"US"},{"MEAN_ANOMALY":"292.7474","NORAD_CAT_ID":"49423","BSTAR":"0.00009421900000","GP_ID":"208407921","CLASSIFICATION_TYPE":"U","RCS_SIZE":"LARGE","REF_FRAME":"TEME","DECAY_DATE":null,"REV_AT_EPOCH":"3786","RA_OF_ASC_NODE":"79.0457","PERIOD":"95.438","PERIAPSIS":"538.180","SITE":"AFETR","EPHEMERIS_TYPE":"0","CENTER_NAME":"EARTH","SEMIMAJOR_AXIS":"6917.889","LAUNCH_DATE":"2021-11-13","ECCENTRICITY":"0.00022750","MEAN_MOTION_DOT":"0.00001211","TIME_SYSTEM":"UTC","EPOCH":"2022-07-18T20:14:05.014176","MEAN_MOTION_DDOT":"0.0000000000000","TLE_LINE2":"2 49423  53.2178  79.0457 0002275  67.3759 292.7474 15.08837114 37862","OBJECT_TYPE":"PAYLOAD","OBJECT_NAME":"STARLINK-3149","TLE_LINE1":"1 49423U 21104R   22199.84311359  .00001211  00000-0  94219-4 0  9991","MEAN_MOTION":"15.08837114","COUNTRY_CODE":"US","MEAN_ELEMENT_THEORY":"SGP4","OBJECT_ID":"2021-104R","ARG_OF_PERICENTER":"67.3759","FILE":"3517175","INCLINATION":"53.2178","APOAPSIS":"541.328","ELEMENT_SET_NO":"999"},{"EPHEMERIS_TYPE":"0","SITE":"AFETR","PERIOD":"95.438","RA_OF_ASC_NODE":"78.9901","PERIAPSIS":"537.818","EPOCH":"2022-07-18T20:29:59.251200","TIME_SYSTEM":"UTC","MEAN_MOTION_DOT":"-0.00000137","MEAN_MOTION_DDOT":"0.0000000000000","CENTER_NAME":"EARTH","SEMIMAJOR_AXIS":"6917.881","LAUNCH_DATE":"2021-11-13","ECCENTRICITY":"0.00027870","BSTAR":"0.00000949500000","CLASSIFICATION_TYPE":"U","GP_ID":"208383654","MEAN_ANOMALY":"283.0920","NORAD_CAT_ID":"49424","RCS_SIZE":"LARGE","REF_FRAME":"TEME","DECAY_DATE":null,"REV_AT_EPOCH":"3894","COUNTRY_CODE":"US","MEAN_MOTION":"15.08839901","APOAPSIS":"541.674","ELEMENT_SET_NO":"999","FILE":"3517110","ARG_OF_PERICENTER":"77.0383","OBJECT_ID":"2021-104S","MEAN_ELEMENT_THEORY":"SGP4","INCLINATION":"53.2193","TLE_LINE2":"2 49424  53.2193  78.9901 0002787  77.0383 283.0920 15.08839901 38946","TLE_LINE1":"1 49424U 21104S   22199.85415800 -.00000137  00000-0  94950-5 0  9999","OBJECT_TYPE":"PAYLOAD","OBJECT_NAME":"STARLINK-3135"}];
